[{"OBJECT_NAME":"IRIDIUM 125","OBJECT_ID":"2017-061K","EPOCH":"2026-03-09T21:31:26.578560","MEAN_MOTION":14.342175,"ECCENTRICITY":0.00017652,"INCLINATION":86.3918,"RA_OF_ASC_NODE":66.8822,"ARG_OF_PERICENTER":75.1905,"MEAN_ANOMALY":284.9486,"EPHEMERIS_TYPE":0,"CLASSIFICATION_TYPE":"U","NORAD_CAT_ID":42964,"ELEMENT_SET_NO":999,"REV_AT_EPOCH":44062,"BSTAR":-1.144702e-6,"MEAN_MOTION_DOT":1.7e-7,"MEAN_MOTION_DDOT":0},{"OBJECT_NAME":"CZ-6A DEB","OBJECT_ID":"2024-140VX","EPOCH":"2026-03-09T13:43:28.686720","MEAN_MOTION":14.49095121,"ECCENTRICITY":0.0084397,"INCLINATION":88.921,"RA_OF_ASC_NODE":277.5576,"ARG_OF_PERICENTER":250.8173,"MEAN_ANOMALY":108.3885,"EPHEMERIS_TYPE":0,"CLASSIFICATION_TYPE":"U","NORAD_CAT_ID":61358,"ELEMENT_SET_NO":999,"REV_AT_EPOCH":7990,"BSTAR":0.00029019,"MEAN_MOTION_DOT":1.169e-5,"MEAN_MOTION_DDOT":0}]
